TDRS 3                  
1 19548U 88091B   26193.26810549 -.00000301  00000+0  00000+0 0  9992
2 19548  12.5830 340.8325 0037006 355.4856   1.2392  1.00263537125636
FLTSATCOM 8 (USA 46)    
1 20253U 89077A   26193.80162080 -.00000372  00000+0  00000+0 0  9990
2 20253  12.4142 351.0067 0003472  69.8924 283.9138  1.00264240260814
SKYNET 4C               
1 20776U 90079A   26193.60383416 -.00000085  00000+0  00000+0 0  9991
2 20776  13.3301 349.6516 0002819 136.5854 228.4907  0.98577502   297
TDRS 5                  
1 21639U 91054B   26193.59975016  .00000079  00000+0  00000+0 0  9997
2 21639  14.0679 353.5872 0007443 257.6797  87.4286  1.00272365127960
TDRS 6                  
1 22314U 93003B   26193.83897433 -.00000302  00000+0  00000+0 0  9997
2 22314  14.1832 356.8653 0008209 183.7163   6.0904  1.00280616122667
UFO 2 (USA 95)          
1 22787U 93056A   26193.83308931  .00000118  00000+0  00000+0 0  9993
2 22787  11.9039   3.4104 0002653   8.8165 247.0411  1.00269301118806
USA 99 (MILSTAR-1 1)    
1 22988U 94009A   26192.64057240 -.00000002  00000+0  00000+0 0  9990
2 22988  17.6619  27.4499 0001626 196.6248 164.5715  0.98720423 33197
UFO 4 (USA 108)         
1 23467U 95003A   26193.73970242 -.00000026  00000+0  00000+0 0  9991
2 23467   9.6743  13.0197 0003139  96.8772 259.3606  1.00275901115204
TDRS 7                  
1 23613U 95035B   26193.43807090 -.00000244  00000+0  00000+0 0  9998
2 23613  13.3666 348.0137 0011579  85.6716 103.5899  1.00274612113502
USA 115 (MILSTAR-1 2)   
1 23712U 95060A   26193.47384000 -.00000208  00000+0  00000+0 0  9991
2 23712  14.0817   3.5543 0006082 123.9580 243.4147  1.00272901 33140
INMARSAT 3-F1           
1 23839U 96020A   26193.23933588  .00000033  00000+0  00000+0 0  9998
2 23839  10.6515  46.4004 0004382  85.1476 123.0907  0.99979676110502
INMARSAT 3-F2           
1 24307U 96053A   26193.51631609 -.00000366  00000+0  00000+0 0  9995
2 24307   9.9122  53.6751 0006414  52.1606 134.8919  0.99992974109174
INMARSAT 3-F3           
1 24674U 96070A   26193.81641906  .00000044  00000+0  00000+0 0  9997
2 24674  10.3719  49.4037 0003541  73.2318 118.3251  0.99994342108166
USA 134                 
1 25019U 97065A   26193.40723738 -.00000070  00000+0  00000+0 0  9995
2 25019  12.8132  21.5286 0002461 333.3964 329.5500  1.00273068 33203
INMARSAT 3-F5           
1 25153U 98006B   26193.48094670 -.00000298  00000+0  00000+0 0  9996
2 25153   9.7477  53.0034 0004304  60.8547 295.6731  1.00274003104148
ABS-6                   
1 25924U 99053A   26193.80829418 -.00000120  00000+0  00000+0 0  9991
2 25924   0.0620 262.1820 0003308 189.9116 288.5661  1.00272372 98098
UFO 10 (USA 146)        
1 25967U 99063A   26193.84359022 -.00000195  00000+0  00000+0 0  9994
2 25967   9.8590  27.0728 0001499 111.3860  73.0111  1.00272992 97608
ASIASTAR                
1 26107U 00016A   26193.55947727 -.00000341  00000+0  00000+0 0  9997
2 26107   9.1863  57.8783 0003701  65.4991 113.4969  1.00272370 96176
USA 149 (DSP 20)        
1 26356U 00024A   26193.17394469  .00000091  00000+0  00000+0 0  9990
2 26356  13.1887  11.6694 0001699 307.5341 228.7679  1.00280855 33160
TDRS 8                  
1 26388U 00034A   26193.87317925 -.00000206  00000+0  00000+0 0  9994
2 26388  12.7229  31.1003 0004155  34.9379 263.9127  1.00272804 95435
NSS-11                  
1 26554U 00059A   26193.81167419  .00000022  00000+0  00000+0 0  9996
2 26554   2.1903  81.0848 0002802  35.5181 282.2970  1.00270437 41541
USA 153                 
1 26575U 00065A   26193.52217044 -.00000333  00000+0  00000+0 0  9990
2 26575  11.6667  35.2057 0002065  59.3400 158.3019  1.00273331 33182
AMC-6                   
1 26580U 00067A   26193.75010248  .00000088  00000+0  00000+0 0  9996
2 26580   0.2150  83.6224 0003810  42.4524 299.5545  1.00271688 94149
USA 157 (MILSTAR-2 2)   
1 26715U 01009A   26193.58864022  .00000102  00000+0  00000+0 0  9998
2 26715  11.5699  19.6007 0040547 179.2761 153.4133  1.00273009 33198
INTELSAT 902 (IS-902)   
1 26900U 01039A   26193.44544819 -.00000288  00000+0  00000+0 0  9997
2 26900   6.1786  71.4730 0004424  37.0011 292.1157  1.00270766 90943
USA 164 (MILSTAR-2 3)   
1 27168U 02001A   26193.76572427  .00000091  00000+0  00000+0 0  9996
2 27168  11.2093  21.7458 0098505   8.9479 194.6255  1.00276243 33219
INTELSAT 904 (IS-904)   
1 27380U 02007A   26193.41415079 -.00000231  00000+0  00000+0 0  9996
2 27380   6.9804  68.8780 0005373  23.7610 315.2945  1.00271287 52018
DIRECTV 5 (TEMPO 1)     
1 27426U 02023A   26193.61250087 -.00000062  00000+0  00000+0 0  9995
2 27426   4.9401  74.9919 0003014  43.0326 282.8654  1.00271051 88374
INTELSAT 905 (IS-905)   
1 27438U 02027A   26193.74966913  .00000087  00000+0  00000+0 0  9994
2 27438   6.8152  69.4884 0003441  44.7884 309.0322  1.00271081 51616
GALAXY 3C (G-3C)        
1 27445U 02030A   26193.82935427 -.00000157  00000+0  00000+0 0  9990
2 27445   3.7972  77.6419 0001484  36.9569  19.8538  1.00270648 46755
INTELSAT 906 (IS-906)   
1 27513U 02041A   26193.75808811  .00000007  00000+0  00000+0 0  9999
2 27513   5.8652  72.6060 0003904  21.8303 173.2591  1.00272652 87288
